[{"OBJECT_NAME":"STARLINK-5772","OBJECT_ID":"2023-042AQ","EPOCH":"2025-10-24T18:12:31.906368","MEAN_MOTION":15.02537148,"ECCENTRICITY":0.0001134,"INCLINATION":43.0027,"RA_OF_ASC_NODE":61.6348,"ARG_OF_PERICENTER":272.9107,"MEAN_ANOMALY":87.1606,"EPHEMERIS_TYPE":0,"CLASSIFICATION_TYPE":"U","NORAD_CAT_ID":56024,"ELEMENT_SET_NO":999,"REV_AT_EPOCH":14261,"BSTAR":1.7676e-5,"MEAN_MOTION_DOT":3.5e-7,"MEAN_MOTION_DDOT":0},{"OBJECT_NAME":"STARLINK-5766","OBJECT_ID":"2023-042AR","EPOCH":"2025-10-24T17:39:08.381952","MEAN_MOTION":15.02539983,"ECCENTRICITY":9.37e-5,"INCLINATION":43.0017,"RA_OF_ASC_NODE":62.3129,"ARG_OF_PERICENTER":280.6839,"MEAN_ANOMALY":79.3898,"EPHEMERIS_TYPE":0,"CLASSIFICATION_TYPE":"U","NORAD_CAT_ID":56025,"ELEMENT_SET_NO":999,"REV_AT_EPOCH":14260,"BSTAR":0.0001111,"MEAN_MOTION_DOT":1.298e-5,"MEAN_MOTION_DDOT":0},{"OBJECT_NAME":"STARLINK-5770","OBJECT_ID":"2023-042AS","EPOCH":"2025-10-24T16:49:35.090112","MEAN_MOTION":15.02541722,"ECCENTRICITY":0.0001073,"INCLINATION":43.0016,"RA_OF_ASC_NODE":62.0635,"ARG_OF_PERICENTER":273.951,"MEAN_ANOMALY":86.121,"EPHEMERIS_TYPE":0,"CLASSIFICATION_TYPE":"U","NORAD_CAT_ID":56026,"ELEMENT_SET_NO":999,"REV_AT_EPOCH":14260,"BSTAR":0.00012105,"MEAN_MOTION_DOT":1.432e-5,"MEAN_MOTION_DDOT":0},{"OBJECT_NAME":"STARLINK-5777","OBJECT_ID":"2023-042AT","EPOCH":"2025-10-24T16:54:23.241024","MEAN_MOTION":15.02538804,"ECCENTRICITY":0.0001435,"INCLINATION":43.0041,"RA_OF_ASC_NODE":62.0883,"ARG_OF_PERICENTER":269.8975,"MEAN_ANOMALY":90.1703,"EPHEMERIS_TYPE":0,"CLASSIFICATION_TYPE":"U","NORAD_CAT_ID":56027,"ELEMENT_SET_NO":999,"REV_AT_EPOCH":14260,"BSTAR":5.7882e-5,"MEAN_MOTION_DOT":5.78e-6,"MEAN_MOTION_DDOT":0},{"OBJECT_NAME":"STARLINK-5779","OBJECT_ID":"2023-042AU","EPOCH":"2025-10-24T16:30:25.581312","MEAN_MOTION":15.02523269,"ECCENTRICITY":0.0001201,"INCLINATION":43.0044,"RA_OF_ASC_NODE":61.9594,"ARG_OF_PERICENTER":266.7198,"MEAN_ANOMALY":93.3507,"EPHEMERIS_TYPE":0,"CLASSIFICATION_TYPE":"U","NORAD_CAT_ID":56028,"ELEMENT_SET_NO":999,"REV_AT_EPOCH":14260,"BSTAR":0.00023664,"MEAN_MOTION_DOT":2.993e-5,"MEAN_MOTION_DDOT":0},{"OBJECT_NAME":"STARLINK-5774","OBJECT_ID":"2023-042AV","EPOCH":"2025-10-24T16:44:47.715072","MEAN_MOTION":15.02538515,"ECCENTRICITY":0.0001355,"INCLINATION":43.0042,"RA_OF_ASC_NODE":62.0362,"ARG_OF_PERICENTER":264.7215,"MEAN_ANOMALY":95.3473,"EPHEMERIS_TYPE":0,"CLASSIFICATION_TYPE":"U","NORAD_CAT_ID":56029,"ELEMENT_SET_NO":999,"REV_AT_EPOCH":14260,"BSTAR":2.7929e-5,"MEAN_MOTION_DOT":1.74e-6,"MEAN_MOTION_DDOT":0},{"OBJECT_NAME":"STARLINK-5781","OBJECT_ID":"2023-042AW","EPOCH":"2025-10-24T18:01:22.087776","MEAN_MOTION":15.02537523,"ECCENTRICITY":0.0001669,"INCLINATION":43.0037,"RA_OF_ASC_NODE":61.5773,"ARG_OF_PERICENTER":291.3854,"MEAN_ANOMALY":68.6811,"EPHEMERIS_TYPE":0,"CLASSIFICATION_TYPE":"U","NORAD_CAT_ID":56030,"ELEMENT_SET_NO":999,"REV_AT_EPOCH":14261,"BSTAR":9.4166e-5,"MEAN_MOTION_DOT":1.069e-5,"MEAN_MOTION_DDOT":0},{"OBJECT_NAME":"STARLINK-5785","OBJECT_ID":"2023-042AX","EPOCH":"2025-10-24T14:59:29.062752","MEAN_MOTION":15.02531605,"ECCENTRICITY":0.0001225,"INCLINATION":43.0021,"RA_OF_ASC_NODE":62.3495,"ARG_OF_PERICENTER":269.6058,"MEAN_ANOMALY":90.4644,"EPHEMERIS_TYPE":0,"CLASSIFICATION_TYPE":"U","NORAD_CAT_ID":56031,"ELEMENT_SET_NO":999,"REV_AT_EPOCH":14259,"BSTAR":7.7236e-5,"MEAN_MOTION_DOT":8.4e-6,"MEAN_MOTION_DDOT":0},{"OBJECT_NAME":"STARLINK-5786","OBJECT_ID":"2023-042AY","EPOCH":"2025-10-24T17:48:33.946848","MEAN_MOTION":15.02548148,"ECCENTRICITY":0.0001866,"INCLINATION":43.0019,"RA_OF_ASC_NODE":61.5083,"ARG_OF_PERICENTER":240.2894,"MEAN_ANOMALY":119.7763,"EPHEMERIS_TYPE":0,"CLASSIFICATION_TYPE":"U","NORAD_CAT_ID":56032,"ELEMENT_SET_NO":999,"REV_AT_EPOCH":14261,"BSTAR":1.0259e-5,"MEAN_MOTION_DOT":-6.5e-7,"MEAN_MOTION_DDOT":0},{"OBJECT_NAME":"STARLINK-5782","OBJECT_ID":"2023-042BA","EPOCH":"2025-10-24T01:49:41.013696","MEAN_MOTION":15.0253428,"ECCENTRICITY":0.00012299,"INCLINATION":43.0027,"RA_OF_ASC_NODE":65.1118,"ARG_OF_PERICENTER":265.9228,"MEAN_ANOMALY":94.1474,"EPHEMERIS_TYPE":0,"CLASSIFICATION_TYPE":"U","NORAD_CAT_ID":56034,"ELEMENT_SET_NO":999,"REV_AT_EPOCH":14251,"BSTAR":0.000107651,"MEAN_MOTION_DOT":1.251e-5,"MEAN_MOTION_DDOT":0},{"OBJECT_NAME":"STARLINK-5792","OBJECT_ID":"2023-042BB","EPOCH":"2025-10-24T17:58:08.681376","MEAN_MOTION":15.02537874,"ECCENTRICITY":0.0001205,"INCLINATION":43.0022,"RA_OF_ASC_NODE":61.5597,"ARG_OF_PERICENTER":272.0107,"MEAN_ANOMALY":88.0598,"EPHEMERIS_TYPE":0,"CLASSIFICATION_TYPE":"U","NORAD_CAT_ID":56035,"ELEMENT_SET_NO":999,"REV_AT_EPOCH":14261,"BSTAR":5.8937e-5,"MEAN_MOTION_DOT":5.93e-6,"MEAN_MOTION_DDOT":0},{"OBJECT_NAME":"STARLINK-5790","OBJECT_ID":"2023-042BC","EPOCH":"2025-10-24T17:51:44.712864","MEAN_MOTION":15.02536783,"ECCENTRICITY":0.0002354,"INCLINATION":43.0038,"RA_OF_ASC_NODE":61.5185,"ARG_OF_PERICENTER":254.851,"MEAN_ANOMALY":105.2072,"EPHEMERIS_TYPE":0,"CLASSIFICATION_TYPE":"U","NORAD_CAT_ID":56036,"ELEMENT_SET_NO":999,"REV_AT_EPOCH":14261,"BSTAR":-0.00020275,"MEAN_MOTION_DOT":-2.942e-5,"MEAN_MOTION_DDOT":0},{"OBJECT_NAME":"STARLINK-5758","OBJECT_ID":"2023-042BD","EPOCH":"2025-10-24T08:48:06.958944","MEAN_MOTION":15.0253759,"ECCENTRICITY":0.0001426,"INCLINATION":43.0035,"RA_OF_ASC_NODE":50.7947,"ARG_OF_PERICENTER":268.0453,"MEAN_ANOMALY":92.0226,"EPHEMERIS_TYPE":0,"CLASSIFICATION_TYPE":"U","NORAD_CAT_ID":56037,"ELEMENT_SET_NO":999,"REV_AT_EPOCH":14270,"BSTAR":4.5013e-5,"MEAN_MOTION_DOT":4.04e-6,"MEAN_MOTION_DDOT":0},{"OBJECT_NAME":"STARLINK-5793","OBJECT_ID":"2023-042BE","EPOCH":"2025-10-24T17:43:46.480224","MEAN_MOTION":15.025298,"ECCENTRICITY":0.0002465,"INCLINATION":43.0075,"RA_OF_ASC_NODE":61.4824,"ARG_OF_PERICENTER":266.9322,"MEAN_ANOMALY":93.1238,"EPHEMERIS_TYPE":0,"CLASSIFICATION_TYPE":"U","NORAD_CAT_ID":56038,"ELEMENT_SET_NO":999,"REV_AT_EPOCH":14261,"BSTAR":0.00023997,"MEAN_MOTION_DOT":3.039e-5,"MEAN_MOTION_DDOT":0},{"OBJECT_NAME":"STARLINK-5795","OBJECT_ID":"2023-042BF","EPOCH":"2025-10-24T15:04:37.979904","MEAN_MOTION":15.02534881,"ECCENTRICITY":0.0001149,"INCLINATION":43.0042,"RA_OF_ASC_NODE":49.3167,"ARG_OF_PERICENTER":279.7151,"MEAN_ANOMALY":80.3561,"EPHEMERIS_TYPE":0,"CLASSIFICATION_TYPE":"U","NORAD_CAT_ID":56039,"ELEMENT_SET_NO":999,"REV_AT_EPOCH":14274,"BSTAR":5.0508e-5,"MEAN_MOTION_DOT":4.79e-6,"MEAN_MOTION_DDOT":0},{"OBJECT_NAME":"STARLINK-5798","OBJECT_ID":"2023-042BG","EPOCH":"2025-10-24T15:01:26.433696","MEAN_MOTION":15.02533908,"ECCENTRICITY":0.0001299,"INCLINATION":43.0029,"RA_OF_ASC_NODE":49.2925,"ARG_OF_PERICENTER":268.0753,"MEAN_ANOMALY":91.9941,"EPHEMERIS_TYPE":0,"CLASSIFICATION_TYPE":"U","NORAD_CAT_ID":56040,"ELEMENT_SET_NO":999,"REV_AT_EPOCH":14274,"BSTAR":4.3767e-5,"MEAN_MOTION_DOT":3.88e-6,"MEAN_MOTION_DDOT":0},{"OBJECT_NAME":"STARLINK-5800","OBJECT_ID":"2023-042BH","EPOCH":"2025-10-24T18:09:42.267744","MEAN_MOTION":15.02541586,"ECCENTRICITY":0.0001427,"INCLINATION":43.0044,"RA_OF_ASC_NODE":48.5571,"ARG_OF_PERICENTER":270.9196,"MEAN_ANOMALY":89.1483,"EPHEMERIS_TYPE":0,"CLASSIFICATION_TYPE":"U","NORAD_CAT_ID":56041,"ELEMENT_SET_NO":999,"REV_AT_EPOCH":14276,"BSTAR":9.4942e-6,"MEAN_MOTION_DOT":-7.5e-7,"MEAN_MOTION_DDOT":0}]
