STARLINK-5772           
1 56024U 23042AQ  25297.75870262  .00000035  00000+0  17676-4 0  9998
2 56024  43.0027  61.6348 0001134 272.9107  87.1606 15.02537148142618
STARLINK-5766           
1 56025U 23042AR  25297.73551368  .00001298  00000+0  11110-3 0  9998
2 56025  43.0017  62.3129 0000937 280.6839  79.3898 15.02539983142605
STARLINK-5770           
1 56026U 23042AS  25297.70110058  .00001432  00000+0  12105-3 0  9998
2 56026  43.0016  62.0635 0001073 273.9510  86.1210 15.02541722142605
STARLINK-5777           
1 56027U 23042AT  25297.70443566  .00000578  00000+0  57882-4 0  9994
2 56027  43.0041  62.0883 0001435 269.8975  90.1703 15.02538804142609
STARLINK-5779           
1 56028U 23042AU  25297.68779608  .00002993  00000+0  23664-3 0  9994
2 56028  43.0044  61.9594 0001201 266.7198  93.3507 15.02523269142600
STARLINK-5774           
1 56029U 23042AV  25297.69777448  .00000174  00000+0  27929-4 0  9994
2 56029  43.0042  62.0362 0001355 264.7215  95.3473 15.02538515142606
STARLINK-5781           
1 56030U 23042AW  25297.75095009  .00001069  00000+0  94166-4 0  9990
2 56030  43.0037  61.5773 0001669 291.3854  68.6811 15.02537523142613
STARLINK-5785           
1 56031U 23042AX  25297.62464193  .00000840  00000+0  77236-4 0  9996
2 56031  43.0021  62.3495 0001225 269.6058  90.4644 15.02531605142598
STARLINK-5786           
1 56032U 23042AY  25297.74205957 -.00000065  00000+0  10259-4 0  9993
2 56032  43.0019  61.5083 0001866 240.2894 119.7763 15.02548148142614
STARLINK-5782           
1 56034U 23042BA  25297.07616914  .00001251  00000+0  10765-3 0  9998
2 56034  43.0027  65.1118 0001229 265.9228  94.1474 15.02534280142518
STARLINK-5792           
1 56035U 23042BB  25297.74871159  .00000593  00000+0  58937-4 0  9999
2 56035  43.0022  61.5597 0001205 272.0107  88.0598 15.02537874142616
STARLINK-5790           
1 56036U 23042BC  25297.74426751 -.00002942  00000+0 -20275-3 0  9999
2 56036  43.0038  61.5185 0002354 254.8510 105.2072 15.02536783142616
STARLINK-5758           
1 56037U 23042BD  25297.36674721  .00000404  00000+0  45013-4 0  9997
2 56037  43.0035  50.7947 0001426 268.0453  92.0226 15.02537590142703
STARLINK-5793           
1 56038U 23042BE  25297.73873241  .00003039  00000+0  23997-3 0  9990
2 56038  43.0075  61.4824 0002465 266.9322  93.1238 15.02529800142617
STARLINK-5795           
1 56039U 23042BF  25297.62821736  .00000479  00000+0  50508-4 0  9995
2 56039  43.0042  49.3167 0001149 279.7151  80.3561 15.02534881142743
STARLINK-5798           
1 56040U 23042BG  25297.62600039  .00000388  00000+0  43767-4 0  9996
2 56040  43.0029  49.2925 0001299 268.0753  91.9941 15.02533908142745
STARLINK-5800           
1 56041U 23042BH  25297.75673921 -.00000075  00000+0  94942-5 0  9997
2 56041  43.0044  48.5571 0001427 270.9196  89.1483 15.02541586142761
